[{"OBJECT_NAME":"YAOGAN-35 01A","OBJECT_ID":"2021-101A","EPOCH":"2026-03-09T18:43:20.235648","MEAN_MOTION":15.24952145,"ECCENTRICITY":0.00056881,"INCLINATION":34.9903,"RA_OF_ASC_NODE":183.8731,"ARG_OF_PERICENTER":189.0601,"MEAN_ANOMALY":171.0012,"EPHEMERIS_TYPE":0,"CLASSIFICATION_TYPE":"U","NORAD_CAT_ID":49390,"ELEMENT_SET_NO":999,"REV_AT_EPOCH":24168,"BSTAR":0.00047335489,"MEAN_MOTION_DOT":0.00012075,"MEAN_MOTION_DDOT":0},{"OBJECT_NAME":"STARLINK-30334","OBJECT_ID":"2023-129X","EPOCH":"2026-03-09T22:00:01.999584","MEAN_MOTION":15.26731391,"ECCENTRICITY":0.0001144,"INCLINATION":43,"RA_OF_ASC_NODE":116.7856,"ARG_OF_PERICENTER":265.4844,"MEAN_ANOMALY":154.4592,"EPHEMERIS_TYPE":0,"CLASSIFICATION_TYPE":"U","NORAD_CAT_ID":57719,"ELEMENT_SET_NO":999,"REV_AT_EPOCH":557,"BSTAR":0.00050439309,"MEAN_MOTION_DOT":0.00013291,"MEAN_MOTION_DDOT":0}]
